IRIDIUM 155             
1 43573U 18061E   22041.80752513  .00000171  00000+0  53913-4 0  9991
2 43573  86.4001   0.0712 0002371  95.6184 264.5283 14.34217114185843
IRIDIUM 154             
1 43574U 18061F   22041.57919059  .00000174  00000+0  55247-4 0  9991
2 43574  86.4005   0.2242 0001877  82.8242 277.3168 14.34217633185852
IRIDIUM 163             
1 43575U 18061G   22041.83924500  .00000171  00000+0  54152-4 0  9999
2 43575  86.4002   0.0795 0002367  76.4595 283.6864 14.34220126185861
IRIDIUM 156             
1 43576U 18061H   22041.81386865  .00000171  00000+0  53945-4 0  9993
2 43576  86.4002   0.0953 0002464  85.4212 274.7265 14.34217667185842
IRIDIUM 164             
1 43577U 18061J   22041.37623135  .00000176  00000+0  55884-4 0  9998
2 43577  86.4003   0.2942 0002004  80.2047 279.9375 14.34218250185830
IRIDIUM 159             
1 43578U 18061K   22041.41430114  .00000167  00000+0  52620-4 0  9992
2 43578  86.4001   0.2485 0001961  82.8319 277.3099 14.34218736185803
IRIDIUM 180             
1 43922U 19002A   22041.41376630  .00000159  00000+0  49747-4 0  9990
2 43922  86.3968 297.1229 0001705  63.0472 297.0898 14.34216664161412
IRIDIUM 176             
1 43923U 19002B   22041.43328531  .00000508  00000+0  76663-4 0  9995
2 43923  86.6102 297.1499 0002189  92.4202 267.7266 14.72254506165640
IRIDIUM 168             
1 43924U 19002C   22041.40743982  .00000159  00000+0  49712-4 0  9991
2 43924  86.3970 297.1580 0001769  81.0269 279.1127 14.34219717161396
IRIDIUM 173             
1 43925U 19002D   22041.46451192  .00000150  00000+0  46571-4 0  9998
2 43925  86.3966 297.0877 0001878  80.9093 279.2315 14.34219072161387
IRIDIUM 169             
1 43926U 19002E   22041.50268487  .00000210  00000+0  62208-4 0  9999
2 43926  86.4261 328.6766 0005356 147.1435 213.0097 14.38609934161967
IRIDIUM 172             
1 43927U 19002F   22041.80702547  .00000164  00000+0  51431-4 0  9997
2 43927  86.3967 296.9477 0001812  78.8916 281.2484 14.34217855161446
IRIDIUM 175             
1 43928U 19002G   22041.76697822  .00000509  00000+0  76815-4 0  9998
2 43928  86.6104 296.8371 0002117  79.3800 280.7655 14.72252735165684
IRIDIUM 171             
1 43929U 19002H   22041.43914854  .00000161  00000+0  50383-4 0  9996
2 43929  86.3977 297.2315 0001765  81.9770 278.1626 14.34216876161382
IRIDIUM 170             
1 43930U 19002J   22041.43946773  .00000511  00000+0  77084-4 0  9999
2 43930  86.6102 297.1530 0002130  86.7114 273.4347 14.72262994165653
IRIDIUM 167             
1 43931U 19002K   22041.78166283  .00000161  00000+0  50370-4 0  9998
2 43931  86.3968 296.9667 0001666  72.0011 288.1366 14.34217065161439
